OBJECT_NAME,OBJECT_ID,EPOCH,MEAN_MOTION,ECCENTRICITY,INCLINATION,RA_OF_ASC_NODE,ARG_OF_PERICENTER,MEAN_ANOMALY,EPHEMERIS_TYPE,CLASSIFICATION_TYPE,NORAD_CAT_ID,ELEMENT_SET_NO,REV_AT_EPOCH,BSTAR,MEAN_MOTION_DOT,MEAN_MOTION_DDOT
STARLINK-2616,2021-044BK,2026-06-24T01:42:16.350912,15.31665748,.00013145,53.1625,302.8730,90.6658,269.4494,0,U,48695,999,28063,.25207338E-3,.7457E-4,0
STARLINK-2753,2021-044BL,2026-06-24T02:52:52.360608,15.31703892,.00011706,53.1617,313.4448,68.6863,291.4264,0,U,48696,999,28048,.60342304E-4,.1508E-4,0
STARLINK-3005,2021-059C,2026-06-24T01:25:30.430272,15.01296430,.00020927,97.5391,299.9197,195.8501,164.2658,0,U,48881,999,27476,-.47196988E-3,-.612E-4,0
STARLINK-3090,2021-082C,2026-06-23T23:41:58.132032,14.98330137,.00027668,70.0001,26.3163,268.9183,91.1659,0,U,49132,999,26190,.26373469E-4,.222E-5,0
STARLINK-3077,2021-082D,2026-06-24T00:06:00.832320,14.98332955,.00027767,70.0001,26.4004,270.5029,89.5812,0,U,49133,999,26190,-.227542E-5,-.12E-5,0
STARLINK-3078,2021-082E,2026-06-24T00:00:00.767232,14.98323248,.00028415,70.0005,26.4135,272.0571,88.0262,0,U,49134,999,26310,-.1674905E-3,-.209E-4,0
STARLINK-3073,2021-082F,2026-06-24T04:05:40.987392,14.98330499,.00027868,70.0006,345.9614,266.9701,93.1139,0,U,49135,999,26292,.35893836E-4,.335E-5,0
STARLINK-3055,2021-082H,2026-06-23T22:52:17.481504,14.97523158,.00029843,70.0000,7.6526,268.3281,91.7536,0,U,49137,999,26236,.47256424E-4,.46E-5,0
STARLINK-3058,2021-082J,2026-06-23T23:53:59.884800,14.98331088,.00029255,70.0002,26.4273,267.9890,92.0934,0,U,49138,999,26190,.48701787E-4,.488E-5,0
STARLINK-3057,2021-082K,2026-06-24T06:00:02.000160,15.14146764,.00036813,70.0007,344.9181,261.8193,264.5821,0,U,49139,999,581,.37298261E-2,.68693E-3,0
STARLINK-3093,2021-082M,2026-06-23T23:48:01.024992,14.98333953,.00027866,70.0000,26.4428,264.3819,95.7023,0,U,49141,999,26310,.5739864E-4,.592E-5,0
STARLINK-3109,2021-082P,2026-06-24T06:47:23.448192,14.97529113,.00028002,70.0004,6.8255,269.9674,90.1163,0,U,49143,999,26352,-.17673471E-4,-.299E-5,0
STARLINK-3100,2021-082Q,2026-06-23T23:35:58.318368,14.98330298,.0002975,70.0001,26.4436,268.1433,91.9385,0,U,49144,999,26190,.3899475E-5,-.46E-6,0
STARLINK-3119,2021-082R,2026-06-24T04:47:44.576736,14.98331223,.00032831,69.9997,345.8910,267.9156,92.1627,0,U,49145,999,26291,.66280184E-4,.698E-5,0
STARLINK-3116,2021-082S,2026-06-23T22:40:26.354208,14.97529453,.00033628,69.9998,7.6801,271.5356,88.5417,0,U,49146,999,26351,.12407858E-3,.1358E-4,0
STARLINK-3071,2021-082T,2026-06-24T05:05:45.998880,14.98330440,.00029621,70.0003,345.8768,267.7079,92.3741,0,U,49147,999,26292,.40954843E-4,.396E-5,0
STARLINK-3048,2021-082U,2026-06-24T06:29:21.181920,14.97522387,.00021662,69.9992,6.8389,267.9155,92.1756,0,U,49148,999,26240,.27960492E-4,.235E-5,0
STARLINK-3102,2021-082X,2026-06-24T04:35:43.450368,14.98329555,.0002998,69.9997,345.9191,268.2354,91.8461,0,U,49151,999,26411,-.7314378E-5,-.18E-5,0
STARLINK-3072,2021-082Z,2026-06-24T04:23:42.217728,14.98343930,.00026016,70.0013,345.9461,270.2709,89.8152,0,U,49153,999,26412,-.20672687E-3,-.2559E-4,0
STARLINK-3068,2021-082AA,2026-06-24T06:23:20.644224,14.97521700,.00026599,70.0003,6.8534,269.2127,90.8727,0,U,49154,999,26348,-.542783E-5,-.156E-5,0
STARLINK-3060,2021-082AB,2026-06-24T04:17:41.874432,14.98330781,.00029282,70.0002,345.9493,267.7813,92.3011,0,U,49155,999,26399,.17212184E-4,.112E-5,0
STARLINK-3085,2021-082AC,2026-06-24T05:23:47.305248,14.98336910,.00029921,70.0005,345.8347,281.8185,78.2639,0,U,49156,999,26400,-.65355733E-4,-.873E-5,0
STARLINK-3051,2021-082AD,2026-06-23T22:35:54.016224,15.05792759,.0001829,69.9988,0.9937,137.6335,222.4969,0,U,49157,999,26362,.55303149E-3,.7942E-4,0
STARLINK-3083,2021-082AE,2026-06-24T05:00:09.951264,15.78709643,.00040347,69.9603,233.0413,295.7062,64.3721,0,U,49158,999,26678,.42830554E-3,.75624E-3,0
STARLINK-3056,2021-082AF,2026-06-23T23:17:56.565312,14.98328274,.00026433,69.9999,26.4856,267.9302,92.1554,0,U,49159,999,26299,-.13630926E-3,-.1719E-4,0
STARLINK-3095,2021-082AG,2026-06-24T07:00:37.056384,14.98272277,.00026283,69.9993,25.6563,269.7582,90.3276,0,U,49160,999,26301,.94003193E-3,.11124E-3,0
STARLINK-3080,2021-082AH,2026-06-24T00:42:03.674880,14.98332244,.00027687,70.0000,26.3154,266.6408,93.4434,0,U,49161,999,26298,.26596886E-4,.224E-5,0
STARLINK-3088,2021-082AK,2026-06-24T06:05:18.317472,14.97529278,.00022896,70.0032,6.8958,270.2522,89.8374,0,U,49163,999,26356,-.14466317E-3,-.1782E-4,0
STARLINK-3106,2021-082AL,2026-06-24T06:06:11.634048,14.98307560,.00027451,69.9984,5.7662,267.7625,92.3219,0,U,49164,999,26359,.39740152E-3,.4649E-4,0
STARLINK-3052,2021-082AM,2026-06-24T06:54:35.155296,14.98333264,.00029251,69.9997,25.6987,272.0621,88.0203,0,U,49165,999,26314,-.11705271E-3,-.1489E-4,0
STARLINK-3089,2021-082AN,2026-06-24T05:59:18.749184,14.97515943,.00029712,69.9986,6.9091,272.3585,87.7234,0,U,49166,999,26360,.57035307E-4,.574E-5,0
STARLINK-3054,2021-082AP,2026-06-24T00:18:02.071872,14.98328445,.00031928,70.0000,26.3729,269.3512,90.7282,0,U,49167,999,26310,.56687379E-4,.583E-5,0
STARLINK-3046,2021-082AR,2026-06-24T06:00:10.800864,14.98328818,.00028239,69.9997,5.7882,268.4009,91.6826,0,U,49169,999,26243,-.32073482E-4,-.476E-5,0
STARLINK-3107,2021-082AT,2026-06-23T23:25:17.844672,15.14836889,.00023734,69.9944,13.7954,155.6850,204.4430,0,U,49171,999,26337,.93865749E-3,.17419E-3,0
STARLINK-3045,2021-082AV,2026-06-23T23:17:36.614688,14.98332311,.00028843,69.9993,6.4763,268.9251,91.1577,0,U,49173,999,26239,.47110969E-4,.469E-5,0
STARLINK-3087,2021-082AX,2026-06-24T06:42:29.336544,14.97477793,.00029651,70.0004,6.9658,255.8676,104.2154,0,U,49175,999,26240,-.72697928E-3,-.8567E-4,0
STARLINK-3069,2021-082AY,2026-06-24T06:00:02.000160,15.10587628,.00032122,70.0005,345.4946,261.4042,332.0725,0,U,49176,999,521,.38619393E-2,.64383E-3,0
STARLINK-3103,2021-082AZ,2026-06-24T04:59:45.525120,14.98330185,.00030048,69.9997,345.8905,267.7191,92.3624,0,U,49177,999,26411,.12941734E-4,.61E-6,0
STARLINK-3086,2021-082BA,2026-06-23T23:11:56.262624,14.98331694,.00028319,69.9994,26.4820,270.0740,90.0094,0,U,49178,999,26305,.37178021E-4,.351E-5,0
STARLINK-3043,2021-082BB,2026-06-23T17:28:47.618688,14.98332233,.00025586,69.9999,347.0842,267.8081,92.2785,0,U,49179,999,26284,-.11541779E-4,-.231E-5,0
STARLINK-3059,2021-082BD,2026-06-24T06:48:34.621056,14.98330703,.00027844,69.9999,25.6965,269.7003,90.3837,0,U,49181,999,26313,.37533941E-4,.355E-5,0
STARLINK-3075,2021-104B,2026-06-24T07:18:05.633568,15.10725229,.00010628,53.1602,110.3449,79.8674,280.2438,0,U,49409,999,25473,.11522556E-1,.198324E-2,0
STARLINK-3147,2021-104C,2026-06-24T05:33:51.712128,15.10616749,.00017512,53.1610,110.6814,72.8499,287.2685,0,U,49410,999,25471,.1145645E-1,.196543E-2,0
STARLINK-3162,2021-104D,2026-06-24T02:15:56.568672,15.08828172,.00013351,53.1605,101.3156,91.4228,268.6916,0,U,49411,999,25483,-.1038237E-4,-.453E-5,0
STARLINK-3157,2021-104F,2026-06-24T02:12:01.348128,15.08829682,.00013952,53.1611,101.3394,90.0869,270.0282,0,U,49413,999,25483,-.995E-5,-.446E-5,0
STARLINK-3146,2021-104G,2026-06-24T02:19:55.341120,15.08834668,.00021317,53.1609,111.3030,94.8946,265.2288,0,U,49414,999,25469,.16142437E-3,.2281E-4,0
STARLINK-3159,2021-104H,2026-06-24T02:05:20.503968,15.08833026,.00013627,53.1614,101.3516,96.9445,263.1701,0,U,49415,999,25482,-.26009696E-4,-.702E-5,0
STARLINK-3133,2021-104J,2026-06-24T02:09:18.675072,15.08837284,.00013752,53.1605,111.3364,88.0947,272.0201,0,U,49416,999,25469,.53943485E-4,.571E-5,0
STARLINK-3154,2021-104K,2026-06-24T02:47:40.152480,15.08837221,.00013418,53.1599,100.8696,96.5876,263.5268,0,U,49417,999,25483,.62295264E-4,.704E-5,0
STARLINK-3111,2021-104L,2026-06-24T02:04:00.704064,15.08845901,.00014244,53.1598,111.3517,97.7773,262.3380,0,U,49418,999,25468,.78068587E-4,.955E-5,0
STARLINK-3120,2021-104M,2026-06-24T03:23:30.168960,15.08835419,.00014649,53.1608,111.1055,96.6425,263.4733,0,U,49419,999,25469,.31314878E-4,.21E-5,0
STARLINK-3110,2021-104N,2026-06-24T01:58:34.365216,15.08945761,.00017112,53.1605,111.3691,88.9863,271.1325,0,U,49420,999,25468,.9627174E-3,.15112E-3,0
STARLINK-3112,2021-104P,2026-06-24T02:46:22.410624,15.08830094,.00012634,53.1603,111.0283,87.2706,272.8430,0,U,49421,999,25469,.13512322E-4,-.73E-6,0
STARLINK-3161,2021-104Q,2026-06-24T05:48:02.353824,15.08825767,.00015737,53.1612,110.9728,76.5872,283.5295,0,U,49422,999,25470,-.4803687E-4,-.1052E-4,0
STARLINK-3135,2021-104S,2026-06-24T03:18:13.568256,15.08753249,.00018605,53.1605,111.1207,73.6849,286.4347,0,U,49424,999,25469,.10156505E-2,.15875E-3,0
STARLINK-3139,2021-104T,2026-06-24T02:57:29.297664,15.09430410,.00009194,53.1596,111.1856,45.9630,314.1437,0,U,49425,999,25470,.45749325E-2,.74492E-3,0
STARLINK-3114,2021-104U,2026-06-24T03:07:36.655104,15.08828094,.00013238,53.1607,111.1547,87.4545,272.6598,0,U,49426,999,25469,.16554095E-4,-.25E-6,0
STARLINK-3131,2021-104V,2026-06-24T02:52:18.263712,15.09357549,.00011363,53.1617,111.2078,85.9869,274.1253,0,U,49427,999,25470,.39248332E-2,.6364E-3,0
STARLINK-3121,2021-104W,2026-06-24T02:25:11.540064,15.08835571,.00015012,53.1616,111.2008,88.6121,271.5042,0,U,49428,999,25470,.24955177E-4,.109E-5,0
STARLINK-3138,2021-104Y,2026-06-24T03:24:57.130560,15.08823165,.00011066,53.1606,111.3790,82.7751,277.3366,0,U,49430,999,25470,.38252597E-3,.5803E-4,0
STARLINK-3153,2021-104Z,2026-06-24T02:14:38.509728,15.08837423,.00013612,53.1611,111.5027,89.2644,270.8503,0,U,49431,999,25469,.19343259E-4,.2E-6,0
STARLINK-3158,2021-104AA,2026-06-24T00:20:43.911168,15.08833580,.00014546,53.1618,101.6771,94.9713,265.1444,0,U,49432,999,25482,.2153234E-4,.55E-6,0
STARLINK-3079,2021-104AB,2026-06-24T01:56:04.030944,15.08848364,.00010779,53.1600,91.3768,126.2658,233.8434,0,U,49433,999,25606,.83057947E-4,.1035E-4,0
STARLINK-3134,2021-104AC,2026-06-24T02:50:39.759936,15.09588311,.00019331,53.2157,111.4171,72.7643,287.3561,0,U,49434,999,25578,.92441379E-3,.14759E-3,0
